STARLINK-5471           
1 54766U 22175J   23001.41667824  .00039074  00000+0  28244-3 0  9994
2 54766  53.2145 233.8791 0000913  94.0202   5.1006 15.73124050  2038
STARLINK-5472           
1 54767U 22175K   23001.00001157 -.00029303  00000+0 -20520-3 0  9996
2 54767  53.2148 235.9426 0001101  83.1414 175.4366 15.73188652  1963
STARLINK-5444           
1 54768U 22175L   23001.00001157  .00049898  00000+0  35849-3 0  9996
2 54768  53.2150 235.9413 0001028  51.7089 208.0750 15.73156963  1960
STARLINK-5404           
1 54769U 22175M   23001.00001157 -.00073741  00000+0 -52624-3 0  9993
2 54769  53.2149 235.9456 0001200  74.9853 182.5580 15.73172004  1965
STARLINK-5448           
1 54770U 22175N   23001.41667824 -.00030250  00000+0 -21227-3 0  9992
2 54770  53.2150 233.8752 0001057  86.0475  16.0806 15.73158888  2034
STARLINK-5451           
1 54771U 22175P   23001.00001157 -.00035128  00000+0 -24699-3 0  9994
2 54771  53.2150 235.9419 0001459  47.7410 211.5221 15.73192088  1961
STARLINK-5452           
1 54772U 22175Q   23001.41667824  .00046365  00000+0  33408-3 0  9990
2 54772  53.2145 233.8726 0000995  79.2000  23.4908 15.73120242  2037
STARLINK-5453           
1 54773U 22175R   23001.41667824 -.00141177  00000+0 -10151-2 0  9999
2 54773  53.2146 233.8750 0001312  41.4954  60.0009 15.73276206  2030
STARLINK-5454           
1 54774U 22175S   23001.41667824  .00044389  00000+0  31996-3 0  9996
2 54774  53.2147 233.8690 0001400  32.7776  71.7269 15.73130792  2034
STARLINK-5465           
1 54775U 22175T   22365.91667824 -.00103286  00000+0 -74067-3 0  9994
2 54775  53.2149 236.3477 0001108  67.7153  82.3445 15.73197173  1309
STARLINK-5470           
1 54776U 22175U   22365.91667824 -.00048081  00000+0 -33965-3 0  9998
2 54776  53.2150 236.3446 0001456  51.8663  99.8985 15.73231592  1300
STARLINK-5468           
1 54777U 22175V   23001.25001157 -.00065763  00000+0 -46894-3 0  9996
2 54777  53.2144 234.6961 0000921  53.6316 185.9215 15.73145009  2006
STARLINK-5450           
1 54778U 22175W   22365.91667824 -.00004541  00000+0 -27974-4 0  9997
2 54778  53.2150 236.3424 0001411  50.9097 101.9758 15.73182199  1301
STARLINK-5447           
1 54779U 22175X   22365.91667824 -.00043811  00000+0 -30987-3 0  9998
2 54779  53.2146 236.3414 0001629  35.1695 117.2031 15.73160911  1308
STARLINK-5449           
1 54780U 22175Y   22365.91667824 -.00018524  00000+0 -12779-3 0  9992
2 54780  53.2149 236.3245 0000750  76.2881  85.0019 15.73213788  1301
STARLINK-5443           
1 54781U 22175Z   22365.91667824  .00004788  00000+0  38541-4 0  9994
2 54781  53.2153 236.3418 0001722  38.6096 114.9405 15.73185714  1307
STARLINK-5437           
1 54782U 22175AA  23001.00001157 -.00906449  00000+0 -64134-2 0  9996
2 54782  53.2174 235.6008 0001241  59.7329   8.9693 15.75800122  1970
STARLINK-5439           
1 54783U 22175AB  23001.25001157 -.00054071  00000+0 -38392-3 0  9997
2 54783  53.2145 234.6893 0000962  60.8111 182.2343 15.73164534  2002
STARLINK-5442           
1 54784U 22175AC  23001.41667824  .00045842  00000+0  33091-3 0  9990
2 54784  53.2154 233.8632 0000909  89.9919  18.7418 15.73083001  2032
STARLINK-5440           
1 54785U 22175AD  22365.91667824 -.00895955  00000+0 -61208-2 0  9998
2 54785  53.2171 236.0050 0001066 109.4868 208.4970 15.76561406  1300
STARLINK-5438           
1 54786U 22175AE  22365.91667824 -.00032653  00000+0 -22894-3 0  9996
2 54786  53.2149 236.3314 0001443  48.2148 110.1121 15.73219288  1304
STARLINK-5441           
1 54787U 22175AF  23001.25001157  .00000314  00000+0  66731-5 0  9990
2 54787  53.2147 234.6863 0001229  72.3556 172.5794 15.73116167  2004
STARLINK-5399           
1 54788U 22175AG  22365.91667824 -.00020684  00000+0 -14324-3 0  9998
2 54788  53.2152 236.3296 0000942  76.0785  83.4393 15.73213558  1305
STARLINK-5446           
1 54789U 22175AH  23001.25001157  .00298813  46725-4  65608-3 0  9994
2 54789  53.2129 233.6239 0038134 104.0024 294.3849 15.96253948  2019
STARLINK-5445           
1 54790U 22175AJ  22365.91667824 -.00027043  00000+0 -18897-3 0  9996
2 54790  53.2152 236.3263 0001605  29.5927 131.0717 15.73187911  1303
STARLINK-5425           
1 54791U 22175AK  23001.25001157 -.00075185  00000+0 -53642-3 0  9990
2 54791  53.2146 234.6822 0001280  51.9099 194.6790 15.73185036  2007
STARLINK-5431           
1 54792U 22175AL  22365.91667824  .00018141  00000+0  13355-3 0  9999
2 54792  53.2156 236.3250 0001636  40.1251 122.3752 15.73171790  1308
STARLINK-5433           
1 54793U 22175AM  23001.25001157 -.00056608  00000+0 -40161-3 0  9993
2 54793  53.2148 234.6487 0001655  39.3379 223.2802 15.73199981  2002
STARLINK-5392           
1 54794U 22175AN  23001.25001157  .00007259  00000+0  56261-4 0  9999
2 54794  53.2151 234.6729 0001151  76.4499 175.5627 15.73126819  2006
STARLINK-5436           
1 54795U 22175AP  22365.91667824 -.00024624  00000+0 -17159-3 0  9993
2 54795  53.2154 236.3288 0001345  53.4604 106.6741 15.73193753  1302
STARLINK-5415           
1 54796U 22175AQ  23001.25001157 -.00081895  00000+0 -58389-3 0  9993
2 54796  53.2150 234.6694 0001510  45.0217 208.1866 15.73234624  2009
STARLINK-5435           
1 54797U 22175AR  23001.25001157 -.00120099  00000+0 -86244-3 0  9995
2 54797  53.2144 234.6726 0001335  65.8007 184.9391 15.73229923  2001
STARLINK-5420           
1 54798U 22175AS  23001.00001157  .00096701  00000+0  62023-3 0  9998
2 54798  53.2157 235.8672 0001070  51.1054 245.4111 15.75519101  1975
STARLINK-5421           
1 54799U 22175AT  22365.91667824  .00054480  00000+0  39159-3 0  9992
2 54799  53.2156 236.2958 0001897  28.8778 147.2288 15.73108157  1302
STARLINK-5428           
1 54800U 22175AU  23001.41667824 -.00032183  00000+0 -22631-3 0  9993
2 54800  53.2153 233.8381 0001078  84.7556  35.2369 15.73144860  2039
STARLINK-5429           
1 54801U 22175AV  22365.91667824 -.00019456  00000+0 -13482-3 0  9993
2 54801  53.2154 236.3174 0001223  64.3513 101.1518 15.73150200  1301
STARLINK-5426           
1 54802U 22175AW  23001.25001157  .00279437  41852-4  65789-3 0  9997
2 54802  53.2156 233.7599 0031446  92.5742 243.0701 15.95460379  2017
STARLINK-5430           
1 54803U 22175AX  22365.91667824 -.00164753  00000+0 -11896-2 0  9992
2 54803  53.2151 236.3150 0001354  81.1788  84.9571 15.73257917  1300
STARLINK-5422           
1 54804U 22175AY  22365.91667824 -.00013007  00000+0 -88401-4 0  9996
2 54804  53.2152 236.3112 0001433  63.7415 104.6812 15.73199265  1300
STARLINK-5417           
1 54805U 22175AZ  22365.91667824  .00026223  00000+0  19090-3 0  9996
2 54805  53.2152 236.3109 0001522  46.7258 121.1639 15.73171769  1302
STARLINK-5412           
1 54806U 22175BA  23001.25001157 -.00088921  00000+0 -63416-3 0  9999
2 54806  53.2151 234.6591 0001717  38.2807 220.2366 15.73260840  2005
STARLINK-5410           
1 54807U 22175BB  22365.91667824 -.00032942  00000+0 -23170-3 0  9999
2 54807  53.2150 236.3080 0001267  50.4093 118.8068 15.73151509  1304
STARLINK-5413           
1 54808U 22175BC  22365.91667824  .00054798  00000+0  39281-3 0  9991
2 54808  53.2152 236.3058 0001715  59.5468 111.2119 15.73169585  1303
STARLINK-5414           
1 54809U 22175BD  22365.91667824 -.00027209  00000+0 -19000-3 0  9998
2 54809  53.2152 236.3067 0001234  49.1742 121.0880 15.73209327  1303
STARLINK-5408           
1 54810U 22175BE  22365.91667824  .00035628  00000+0  25745-3 0  9995
2 54810  53.2157 236.3043 0001173  82.8050  88.6333 15.73176477  1302
STARLINK-5424           
1 54811U 22175BF  23001.41667824 -.00047679  00000+0 -33736-3 0  9999
2 54811  53.2151 233.8260 0001103  67.7546  57.7021 15.73191156  2038
FALCON 9 DEB            
1 54812U 22175BG  23001.20362082  .02940903  11944-4  84720-3 0  9990
2 54812  53.2123 232.6461 0032004 103.1353 257.3264 16.25165391  4199
FALCON 9 DEB            
1 54813U 22175BH  23001.19881543  .02850955  11953-4  81785-3 0  9992
2 54813  53.2034 232.6028 0029653 102.4491 257.9872 16.25429430  4199
FALCON 9 DEB            
1 54814U 22175BJ  22365.63623251  .01890567  11910-4  65431-3 0  9999
2 54814  53.2152 235.4927 0031348  91.8868 268.5765 16.23178477  4103
FALCON 9 DEB            
1 54815U 22175BK  23001.18335872  .03509429  12075-4  70101-3 0  9996
2 54815  53.2157 232.4960 0024040  94.8439 265.5352 16.29728776  4198
XW-4 (CAS-10)           
1 54816U 21035C   23001.25360957  .00122615  00000+0  12947-2 0  9999
2 54816  41.4781  93.0220 0006827 285.3678  74.7943 15.63004841  2096
2022-176A               
1 54818U 22176A   23001.15824391  .00181752  90830-5  92077-3 0  9990
2 54818  97.2725 142.1788 0322764 173.7527 359.4557 15.33557046   745
2022-176B               
1 54819U 22176B   22365.94835497  .00306359  30054-4  95307-3 0  9991
2 54819  97.2272 142.1690 0172790 159.5162 201.3080 15.71497691   730
SHIYAN 10-02 (SY-10 02) 
1 54878U 22178A   22363.79780338  .00010514 -29619-6  76203-3 0  9999
2 54878  50.9887 118.8514 7525127 225.2265  62.4328  2.01047938    45
CZ-3B R/B               
1 54879U 22178B   22365.27887663  .00004090  00000+0  14341-2 0  9995
2 54879  51.3332 118.2692 7520572 226.1880  40.1404  1.99138859    79
EROS C3                 
1 54880U 22179A   22365.87348346  .00000260  00000+0  00000+0 0  9993
2 54880 139.3590 230.1843 0013271 270.8970  89.0419 15.24007449   248
NOAA 1 [-]              
1 04793U 70106A   22365.78759646 -.00000047  00000+0 -18345-4 0  9994
2 04793 101.5311  64.4242 0031252 298.0221 177.9491 12.54010308382326
NOAA 2 (ITOS-D) [-]     
1 06235U 72082A   22365.80925873 -.00000016  00000+0  19134-3 0  9993
2 06235 101.9765 349.4314 0004210  58.1411   5.8927 12.53155434296698
NOAA 3 [-]              
1 06920U 73086A   23001.22293285 -.00000012  00000+0  25056-3 0  9994
2 06920 102.2314 348.5067 0006514 287.8904  83.1440 12.40351636225492
